      2.10          N: GNSS NAV DATA                        RINEX VERSION / TYPE
fic2rin                                 03/15/2019 00:19:25 PGM / RUN BY / DATE
                                                            END OF HEADER
22 19  3 14 22  0  0.0-6.642607040703e-04-7.503331289627e-12 0.000000000000e+00
    9.400000000000e+01-2.581250000000e+01 5.338793810763e-09 1.020066215932e+00
   -1.514330506325e-06 7.258788682520e-03 9.093433618546e-06 5.153553829193e+03
    4.248000000000e+05-2.607703208923e-08-6.304840260304e-01-1.005828380585e-07
    9.270307586435e-01 1.892187500000e+02-1.400853593964e+00-8.455709357092e-09
    2.589393572922e-10 1.000000000000e+00 2.044000000000e+03 0.000000000000e+00
    2.400000000000e+00 0.000000000000e+00-1.816079020500e-08 9.400000000000e+01
    4.176000000000e+05 4.000000000000e+00
16 19  3 14 22  0  0.0-2.541905269027e-05-2.614797267597e-12 0.000000000000e+00
    7.400000000000e+01 7.803125000000e+01 4.072312485304e-09 2.620910828873e+00
    3.943219780922e-06 1.067750283983e-02 6.061047315598e-06 5.153795398712e+03
    4.248000000000e+05-8.940696716309e-08 2.666260372081e+00-1.750886440277e-07
    9.840866761887e-01 2.766875000000e+02 5.533728153189e-01-7.831754795452e-09
    9.821837690392e-11 1.000000000000e+00 2.044000000000e+03 0.000000000000e+00
    2.400000000000e+00 0.000000000000e+00-1.071020960808e-08 7.400000000000e+01
    4.176000000000e+05 4.000000000000e+00
13 19  3 14 22  0  0.0-7.170252501965e-05 1.364242052659e-12 0.000000000000e+00
    9.600000000000e+01 1.500000000000e+00 4.572690470912e-09 6.972166229452e-01
   -1.862645149231e-08 3.663467592560e-03 7.286667823792e-06 5.153658554077e+03
    4.248000000000e+05-2.235174179077e-08 6.080546786838e-01-7.450580596924e-09
    9.682590085371e-01 2.418125000000e+02 1.353622436745e+00-8.084979628997e-09
   -7.964617472573e-11 1.000000000000e+00 2.044000000000e+03 0.000000000000e+00
    2.400000000000e+00 0.000000000000e+00-1.117587089539e-08 9.600000000000e+01
    4.176000000000e+05 4.000000000000e+00
27 19  3 14 22  0  0.0-8.624047040939e-05-7.958078640513e-12 0.000000000000e+00
    8.500000000000e+01-2.753125000000e+01 4.371253508826e-09 1.785988426592e+00
   -1.320615410805e-06 6.846653879620e-03 4.276633262634e-06 5.153639616013e+03
    4.248000000000e+05-1.750886440277e-07-2.658576498737e+00 1.750886440277e-07
    9.786357322435e-01 3.083437500000e+02 4.415081452836e-01-8.259272603284e-09
   -1.017899542459e-10 1.000000000000e+00 2.044000000000e+03 0.000000000000e+00
    2.400000000000e+00 0.000000000000e+00 1.396983861923e-09 8.500000000000e+01
    4.176000000000e+05 4.000000000000e+00
25 19  3 14 22  0  0.0-7.330961525440e-04-5.002220859751e-12 0.000000000000e+00
    7.600000000000e+01 6.700000000000e+01 4.370539193357e-09-2.062016147341e+00
    3.444030880928e-06 8.329340955243e-03 6.191432476044e-06 5.153744785309e+03
    4.248000000000e+05 1.173466444016e-07 2.583965862676e+00-1.490116119385e-08
    9.711393333142e-01 2.655312500000e+02 8.694474430387e-01-7.990332829435e-09
    1.346484657919e-10 1.000000000000e+00 2.044000000000e+03 0.000000000000e+00
    2.400000000000e+00 0.000000000000e+00 5.587935447693e-09 7.600000000000e+01
    4.176000000000e+05 4.000000000000e+00
14 19  3 14 22  0  0.0-8.833548054099e-05 1.364242052659e-12 0.000000000000e+00
    5.300000000000e+01 3.437500000000e+00 4.664122850867e-09 1.542149236751e+00
    1.676380634308e-07 1.028390938882e-02 7.858499884605e-06 5.153675926208e+03
    4.248000000000e+05-2.272427082062e-07 5.641670485307e-01-1.452863216400e-07
    9.608515886740e-01 2.269375000000e+02-1.947652479681e+00-8.114623720935e-09
   -5.428797559780e-11 1.000000000000e+00 2.044000000000e+03 0.000000000000e+00
    2.400000000000e+00 0.000000000000e+00-9.778887033463e-09 5.300000000000e+01
    4.176000000000e+05 4.000000000000e+00
11 19  3 14 22  0  0.0-6.449767388403e-04 6.593836587854e-12 0.000000000000e+00
    6.900000000000e+01-8.634375000000e+01 5.911317658679e-09-1.092559351220e+00
   -4.326924681664e-06 1.652852445841e-02 5.722045898438e-06 5.153692434311e+03
    4.248000000000e+05-2.980232238770e-07-2.049113752624e+00 2.607703208923e-08
    9.085610185162e-01 2.410937500000e+02 1.869111330915e+00-9.135737683002e-09
   -7.357449324439e-11 1.000000000000e+00 2.044000000000e+03 0.000000000000e+00
    2.400000000000e+00 0.000000000000e+00-1.210719347000e-08 6.900000000000e+01
    4.176000000000e+05 4.000000000000e+00
23 19  3 14 22  0  0.0-1.940196380019e-04 1.364242052659e-12 0.000000000000e+00
    5.600000000000e+01 8.875000000000e+00 5.149500211639e-09 3.699981670174e-01
    5.941838026047e-07 1.292940287385e-02 7.273629307747e-06 5.153615072250e+03
    4.248000000000e+05-1.508742570877e-07 4.675761561037e-01 2.533197402954e-07
    9.436432993997e-01 2.321875000000e+02-2.287780598102e+00-8.417136321799e-09
   -7.643175511796e-11 1.000000000000e+00 2.044000000000e+03 0.000000000000e+00
    2.400000000000e+00 0.000000000000e+00-2.002343535423e-08 5.600000000000e+01
    4.176000000000e+05 4.000000000000e+00
21 19  3 14 22  0  0.0-2.324506640434e-04 7.389644451905e-12 0.000000000000e+00
    6.300000000000e+01-6.225000000000e+01 4.569476051305e-09-2.175617522037e+00
   -3.106892108917e-06 2.477325114887e-02 7.664784789085e-06 5.153779033661e+03
    4.248000000000e+05 3.539025783539e-07-1.665203939799e+00 2.589076757431e-07
    9.472628513114e-01 2.175625000000e+02-1.464504548093e+00-7.789967340551e-09
   -1.750072897561e-11 1.000000000000e+00 2.044000000000e+03 0.000000000000e+00
    2.400000000000e+00 0.000000000000e+00-1.024454832077e-08 6.300000000000e+01
    4.176000000000e+05 4.000000000000e+00
17 19  3 14 22  0  0.0 2.346932888031e-05 5.684341886081e-12 0.000000000000e+00
    3.900000000000e+01-2.871875000000e+01 4.134815088788e-09 1.725271179121e+00
   -1.870095729828e-06 1.292410807218e-02 3.719702363014e-06 5.153710483551e+03
    4.248000000000e+05 1.862645149231e-08-2.602871515818e+00-2.533197402954e-07
    9.840949987296e-01 3.205625000000e+02-1.715908204979e+00-8.056049852527e-09
   -1.125046862718e-10 1.000000000000e+00 2.044000000000e+03 0.000000000000e+00
    2.400000000000e+00 0.000000000000e+00-1.117587089539e-08 3.900000000000e+01
    4.176000000000e+05 4.000000000000e+00
12 19  3 14 22  0  0.0 2.601221203804e-04-3.296918293927e-12 0.000000000000e+00
    5.300000000000e+01 6.412500000000e+01 4.115885728876e-09-1.740306768797e+00
    3.438442945480e-06 7.554097683169e-03 6.027519702911e-06 5.153686632156e+03
    4.248000000000e+05 1.080334186554e-07 2.647352395825e+00 3.539025783539e-08
    9.837108335162e-01 2.753437500000e+02 1.046516512116e+00-7.877470985429e-09
    1.317912039184e-10 1.000000000000e+00 2.044000000000e+03 0.000000000000e+00
    2.400000000000e+00 0.000000000000e+00-1.257285475731e-08 5.300000000000e+01
    4.176000000000e+05 4.000000000000e+00
31 19  3 14 22  0  0.0 5.215220153332e-05-2.728484105319e-12 0.000000000000e+00
    7.200000000000e+01 4.740625000000e+01 4.595191408167e-09-1.404337278822e+00
    2.112239599228e-06 9.227902977727e-03 8.577480912209e-06 5.153577388763e+03
    4.248000000000e+05 5.401670932770e-08 1.562256302589e+00-1.322478055954e-07
    9.603356672067e-01 2.125625000000e+02-4.901236384740e-03-8.027120076057e-09
   -6.214544575012e-11 1.000000000000e+00 2.044000000000e+03 0.000000000000e+00
    3.400000000000e+00 0.000000000000e+00-1.350417733192e-08 7.200000000000e+01
    4.176000000000e+05 4.000000000000e+00
26 19  3 14 22  0  0.0 1.492644660175e-04 1.011812855722e-11 0.000000000000e+00
    4.600000000000e+01 8.203125000000e+01 4.784127849557e-09-2.727714994633e+00
    4.217028617859e-06 3.695257124491e-03 6.359070539474e-06 5.153574260712e+03
    4.248000000000e+05-2.235174179077e-08 2.556753431523e+00-3.911554813385e-08
    9.524595927594e-01 2.558750000000e+02 1.349949365438e-01-8.243557662980e-09
    6.500270762369e-11 1.000000000000e+00 2.044000000000e+03 0.000000000000e+00
    2.400000000000e+00 0.000000000000e+00 7.450580596924e-09 4.600000000000e+01
    4.176000000000e+05 4.000000000000e+00
20 19  3 14 22  0  0.0 5.230940878391e-04 3.410605131648e-13 0.000000000000e+00
    5.600000000000e+01-1.893750000000e+01 5.109498545409e-09-7.210083624924e-01
   -1.015141606331e-06 4.367597168311e-03 8.907169103622e-06 5.153674728394e+03
    4.248000000000e+05-2.030283212662e-07-6.794015752312e-01-3.911554813385e-08
    9.302767412575e-01 1.943750000000e+02 2.306087723182e+00-8.285345117881e-09
    3.153702792951e-10 1.000000000000e+00 2.044000000000e+03 0.000000000000e+00
    2.400000000000e+00 0.000000000000e+00-8.381903171539e-09 5.600000000000e+01
    4.176000000000e+05 4.000000000000e+00
 4 19  3 14 22  0  0.0 1.334827393293e-04 7.162270776462e-12 0.000000000000e+00
    1.080000000000e+02 6.781250000000e+00 4.685909472653e-09-9.745066854636e-01
    4.023313522339e-07 3.396946704015e-04 7.452443242073e-06 5.153793588638e+03
    4.248000000000e+05 3.911554813385e-08 5.166143141227e-01 1.862645149231e-08
    9.601819320716e-01 2.355000000000e+02-1.728859510898e+00-8.061050060806e-09
    7.857470152314e-12 1.000000000000e+00 2.044000000000e+03 0.000000000000e+00
    2.400000000000e+00 6.300000000000e+01-8.847564458847e-09 8.760000000000e+02
    4.176300000000e+05 4.000000000000e+00
24 19  3 14 21 59 44.0-6.338674575090e-05-5.684341886081e-13 0.000000000000e+00
    5.000000000000e+00 3.165625000000e+01 5.128785063056e-09-1.127875621461e-01
    1.741573214531e-06 8.233473170549e-03 8.800998330116e-06 5.153725368500e+03
    4.247840000000e+05 7.450580596924e-08 1.483762297821e+00 1.173466444016e-07
    9.389307238563e-01 2.012187500000e+02 6.038311332476e-01-8.408207378444e-09
   -1.914365455291e-10 1.000000000000e+00 2.044000000000e+03 0.000000000000e+00
    2.400000000000e+00 0.000000000000e+00 2.793967723846e-09 5.000000000000e+00
    4.240200000000e+05 4.000000000000e+00
